{
  "type": "FeatureCollection",
  "features": [
    {
      "type": "Feature",
      "properties": {
        "norad_id": 39227,
        "name": "ARIRANG-5 (KOMPSAT-5)",
        "group": "resource",
        "lat": 80.83887733646297,
        "lon": 52.0992525122211,
        "alt_km": 544.137401554196,
        "timestamp": "2025-12-17T19:34:07.701725+00:00",
        "meta_object_name": "ARIRANG-5 (KOMPSAT-5)",
        "meta_object_id": "2013-042A",
        "meta_epoch": "2025-12-17T07:58:28.838208",
        "meta_mean_motion": 15.04525005,
        "meta_eccentricity": 0.0003448,
        "meta_inclination": 97.6147,
        "meta_ra_of_asc_node": 175.5698,
        "meta_arg_of_pericenter": 42.7296,
        "meta_mean_anomaly": 317.4197,
        "meta_ephemeris_type": 0,
        "meta_classification_type": "U",
        "meta_norad_cat_id": 39227,
        "meta_element_set_no": 999,
        "meta_rev_at_epoch": 67651,
        "meta_bstar": 0.00015536284,
        "meta_mean_motion_dot": 2.116e-05,
        "meta_mean_motion_ddot": 0,
        "tle_line1": "1 39227U 13042A   25351.33227822  .00002116  00000+0  15536-3 0  9990",
        "tle_line2": "2 39227  97.6147 175.5698 0003448  42.7296 317.4197 15.04525005676513"
      },
      "geometry": {
        "type": "Point",
        "coordinates": [
          52.0992525122211,
          80.83887733646297
        ]
      }
    },
    {
      "type": "Feature",
      "properties": {
        "norad_id": 39418,
        "name": "SKYSAT-A",
        "group": "resource",
        "lat": -57.10615440664213,
        "lon": -149.73949778496248,
        "alt_km": 524.6471923017052,
        "timestamp": "2025-12-17T19:34:07.701736+00:00",
        "meta_object_name": "SKYSAT-A",
        "meta_object_id": "2013-066C",
        "meta_epoch": "2025-12-17T02:37:57.865728",
        "meta_mean_motion": 15.11635302,
        "meta_eccentricity": 0.00209845,
        "meta_inclination": 97.4107,
        "meta_ra_of_asc_node": 41.1857,
        "meta_arg_of_pericenter": 220.7174,
        "meta_mean_anomaly": 139.2489,
        "meta_ephemeris_type": 0,
        "meta_classification_type": "U",
        "meta_norad_cat_id": 39418,
        "meta_element_set_no": 999,
        "meta_rev_at_epoch": 66096,
        "meta_bstar": 0.00017171952,
        "meta_mean_motion_dot": 2.869e-05,
        "meta_mean_motion_ddot": 0,
        "tle_line1": "1 39418U 13066C   25351.10969752  .00002869  00000+0  17172-3 0  9991",
        "tle_line2": "2 39418  97.4107  41.1857 0020984 220.7174 139.2489 15.11635302660967"
      },
      "geometry": {
        "type": "Point",
        "coordinates": [
          -149.73949778496248,
          -57.10615440664213
        ]
      }
    },
    {
      "type": "Feature",
      "properties": {
        "norad_id": 39419,
        "name": "DUBAISAT-2",
        "group": "resource",
        "lat": -38.94224970090025,
        "lon": -11.868027434728653,
        "alt_km": 540.9145774539375,
        "timestamp": "2025-12-17T19:34:07.701746+00:00",
        "meta_object_name": "DUBAISAT-2",
        "meta_object_id": "2013-066D",
        "meta_epoch": "2025-12-17T05:24:49.647168",
        "meta_mean_motion": 15.08402819,
        "meta_eccentricity": 0.00101045,
        "meta_inclination": 97.4443,
        "meta_ra_of_asc_node": 341.4949,
        "meta_arg_of_pericenter": 305.3882,
        "meta_mean_anomaly": 54.6402,
        "meta_ephemeris_type": 0,
        "meta_classification_type": "U",
        "meta_norad_cat_id": 39419,
        "meta_element_set_no": 999,
        "meta_rev_at_epoch": 65894,
        "meta_bstar": 0.00025008151,
        "meta_mean_motion_dot": 3.832e-05,
        "meta_mean_motion_ddot": 0,
        "tle_line1": "1 39419U 13066D   25351.22557462  .00003832  00000+0  25008-3 0  9994",
        "tle_line2": "2 39419  97.4443 341.4949 0010104 305.3882  54.6402 15.08402819658949"
      },
      "geometry": {
        "type": "Point",
        "coordinates": [
          -11.868027434728653,
          -38.94224970090025
        ]
      }
    },
    {
      "type": "Feature",
      "properties": {
        "norad_id": 39574,
        "name": "GPM-CORE",
        "group": "resource",
        "lat": 45.33344827088245,
        "lon": -136.1053333777257,
        "alt_km": 434.14255356176363,
        "timestamp": "2025-12-17T19:34:07.701756+00:00",
        "meta_object_name": "GPM-CORE",
        "meta_object_id": "2014-009C",
        "meta_epoch": "2025-12-17T06:54:48.936096",
        "meta_mean_motion": 15.44534475,
        "meta_eccentricity": 0.00095659,
        "meta_inclination": 64.9726,
        "meta_ra_of_asc_node": 197.4504,
        "meta_arg_of_pericenter": 246.8612,
        "meta_mean_anomaly": 113.1521,
        "meta_ephemeris_type": 0,
        "meta_classification_type": "U",
        "meta_norad_cat_id": 39574,
        "meta_element_set_no": 999,
        "meta_rev_at_epoch": 66971,
        "meta_bstar": 0.00014120098,
        "meta_mean_motion_dot": 6.347e-05,
        "meta_mean_motion_ddot": 0,
        "tle_line1": "1 39574U 14009C   25351.28806639  .00006347  00000+0  14120-3 0  9990",
        "tle_line2": "2 39574  64.9726 197.4504 0009565 246.8612 113.1521 15.44534475669713"
      },
      "geometry": {
        "type": "Point",
        "coordinates": [
          -136.1053333777257,
          45.33344827088245
        ]
      }
    },
    {
      "type": "Feature",
      "properties": {
        "norad_id": 39634,
        "name": "SENTINEL-1A",
        "group": "resource",
        "lat": 48.22201863122004,
        "lon": -173.7524548945147,
        "alt_km": 690.8730587944492,
        "timestamp": "2025-12-17T19:34:07.701766+00:00",
        "meta_object_name": "SENTINEL-1A",
        "meta_object_id": "2014-016A",
        "meta_epoch": "2025-12-17T07:27:01.591776",
        "meta_mean_motion": 14.59200899,
        "meta_eccentricity": 0.00012324,
        "meta_inclination": 98.1802,
        "meta_ra_of_asc_node": 356.4848,
        "meta_arg_of_pericenter": 82.5107,
        "meta_mean_anomaly": 277.6233,
        "meta_ephemeris_type": 0,
        "meta_classification_type": "U",
        "meta_norad_cat_id": 39634,
        "meta_element_set_no": 999,
        "meta_rev_at_epoch": 62349,
        "meta_bstar": 3.5855515e-05,
        "meta_mean_motion_dot": 1.23e-06,
        "meta_mean_motion_ddot": 0,
        "tle_line1": "1 39634U 14016A   25351.31043509  .00000123  00000+0  35856-4 0  9994",
        "tle_line2": "2 39634  98.1802 356.4848 0001232  82.5107 277.6233 14.59200899623495"
      },
      "geometry": {
        "type": "Point",
        "coordinates": [
          -173.7524548945147,
          48.22201863122004
        ]
      }
    },
    {
      "type": "Feature",
      "properties": {
        "norad_id": 39731,
        "name": "KAZEOSAT 1",
        "group": "resource",
        "lat": 26.64368302324519,
        "lon": -112.16869903017515,
        "alt_km": 750.2328542832702,
        "timestamp": "2025-12-17T19:34:07.701776+00:00",
        "meta_object_name": "KAZEOSAT 1",
        "meta_object_id": "2014-024A",
        "meta_epoch": "2025-12-17T07:12:18.912096",
        "meta_mean_motion": 14.42065553,
        "meta_eccentricity": 0.00011398,
        "meta_inclination": 98.3433,
        "meta_ra_of_asc_node": 63.1054,
        "meta_arg_of_pericenter": 96.4299,
        "meta_mean_anomaly": 263.7021,
        "meta_ephemeris_type": 0,
        "meta_classification_type": "U",
        "meta_norad_cat_id": 39731,
        "meta_element_set_no": 999,
        "meta_rev_at_epoch": 61234,
        "meta_bstar": 8.1123159e-05,
        "meta_mean_motion_dot": 2.24e-06,
        "meta_mean_motion_ddot": 0,
        "tle_line1": "1 39731U 14024A   25351.30021889  .00000224  00000+0  81123-4 0  9997",
        "tle_line2": "2 39731  98.3433  63.1054 0001139  96.4299 263.7021 14.42065553612349"
      },
      "geometry": {
        "type": "Point",
        "coordinates": [
          -112.16869903017515,
          26.64368302324519
        ]
      }
    },
    {
      "type": "Feature",
      "properties": {
        "norad_id": 39766,
        "name": "ALOS-2",
        "group": "resource",
        "lat": -0.7744514474067755,
        "lon": 86.69675613876667,
        "alt_km": 634.196763333267,
        "timestamp": "2025-12-17T19:34:07.701786+00:00",
        "meta_object_name": "ALOS-2",
        "meta_object_id": "2014-029A",
        "meta_epoch": "2025-12-17T06:35:12.570720",
        "meta_mean_motion": 14.79471004,
        "meta_eccentricity": 0.00013317,
        "meta_inclination": 97.9224,
        "meta_ra_of_asc_node": 86.0558,
        "meta_arg_of_pericenter": 96.3376,
        "meta_mean_anomaly": 263.7988,
        "meta_ephemeris_type": 0,
        "meta_classification_type": "U",
        "meta_norad_cat_id": 39766,
        "meta_element_set_no": 999,
        "meta_rev_at_epoch": 62468,
        "meta_bstar": 0.00013839671,
        "meta_mean_motion_dot": 9.82e-06,
        "meta_mean_motion_ddot": 0,
        "tle_line1": "1 39766U 14029A   25351.27445105  .00000982  00000+0  13840-3 0  9998",
        "tle_line2": "2 39766  97.9224  86.0558 0001331  96.3376 263.7988 14.79471004624686"
      },
      "geometry": {
        "type": "Point",
        "coordinates": [
          86.69675613876667,
          -0.7744514474067755
        ]
      }
    }
  ]
}